[{"OBJECT_NAME":"STARLINK-30512","OBJECT_ID":"2023-151N","EPOCH":"2026-03-09T22:00:01.999584","MEAN_MOTION":15.27542701,"ECCENTRICITY":0.00014616,"INCLINATION":43.0006,"RA_OF_ASC_NODE":334.5386,"ARG_OF_PERICENTER":259.1867,"MEAN_ANOMALY":60.3165,"EPHEMERIS_TYPE":0,"CLASSIFICATION_TYPE":"U","NORAD_CAT_ID":57976,"ELEMENT_SET_NO":999,"REV_AT_EPOCH":578,"BSTAR":-0.00032128413,"MEAN_MOTION_DOT":-9.082e-5,"MEAN_MOTION_DDOT":0},{"OBJECT_NAME":"OBJECT H","OBJECT_ID":"2025-155H","EPOCH":"2026-03-09T22:09:58.611456","MEAN_MOTION":15.27590961,"ECCENTRICITY":0.00081993,"INCLINATION":97.4482,"RA_OF_ASC_NODE":37.3122,"ARG_OF_PERICENTER":152.0629,"MEAN_ANOMALY":208.1051,"EPHEMERIS_TYPE":0,"CLASSIFICATION_TYPE":"U","NORAD_CAT_ID":64883,"ELEMENT_SET_NO":999,"REV_AT_EPOCH":6559,"BSTAR":0.00050403256,"MEAN_MOTION_DOT":0.00013547,"MEAN_MOTION_DDOT":0}]
